{
  "norad_id": 67173,
  "name": "STARLINK-36183",
  "history": [
    {
      "epoch": "2026-03-28T17:20:42.411840Z",
      "apogee_km": 483.685560805754,
      "perigee_km": 482.0677337877205,
      "latitude_deg": 2.811068728933124e-05,
      "longitude_deg": 117.11253958309173,
      "height_km": 482.6747325046425,
      "semi_major_axis_km": 6861.013647296737,
      "eccentricity": 0.0001179,
      "inclination_deg": 43.0016,
      "raan_deg": 203.4283,
      "arg_perigee_deg": 268.4838,
      "mean_anomaly_deg": 91.5879,
      "mean_motion_rev_day": 15.27637593
    },
    {
      "epoch": "2026-03-30T07:00:27.794304Z",
      "apogee_km": 483.3041842549337,
      "perigee_km": 482.71906550020503,
      "latitude_deg": 4.81150234567768e-05,
      "longitude_deg": -98.23568022607512,
      "height_km": 482.85972651444814,
      "semi_major_axis_km": 6861.148624877569,
      "eccentricity": 4.264e-05,
      "inclination_deg": 43.0027,
      "raan_deg": 194.5659,
      "arg_perigee_deg": 255.7529,
      "mean_anomaly_deg": 104.3276,
      "mean_motion_rev_day": 15.27592514
    },
    {
      "epoch": "2026-03-30T13:17:05.245152Z",
      "apogee_km": 484.3877037204102,
      "perigee_km": 481.6874198598716,
      "latitude_deg": 2.0054309577716694e-05,
      "longitude_deg": 165.87265486214397,
      "height_km": 482.61074866870814,
      "semi_major_axis_km": 6861.174561790141,
      "eccentricity": 0.00019678,
      "inclination_deg": 43.0029,
      "raan_deg": 193.0881,
      "arg_perigee_deg": 278.7031,
      "mean_anomaly_deg": 81.3598,
      "mean_motion_rev_day": 15.27583852
    },
    {
      "epoch": "2026-03-30T16:25:24.016800Z",
      "apogee_km": 483.96324651193027,
      "perigee_km": 482.0544757333664,
      "latitude_deg": 2.710732578956169e-05,
      "longitude_deg": 117.92725176094214,
      "height_km": 482.66066714006433,
      "semi_major_axis_km": 6861.145861122648,
      "eccentricity": 0.0001391,
      "inclination_deg": 43.003,
      "raan_deg": 192.3498,
      "arg_perigee_deg": 277.5396,
      "mean_anomaly_deg": 82.5298,
      "mean_motion_rev_day": 15.27593437
    },
    {
      "epoch": "2026-03-31T12:49:25.776768Z",
      "apogee_km": 483.3577653002012,
      "perigee_km": 482.55927100379904,
      "latitude_deg": -4.649289249237921e-05,
      "longitude_deg": 166.27972288307322,
      "height_km": 482.95131292443347,
      "semi_major_axis_km": 6861.095518151999,
      "eccentricity": 5.819e-05,
      "inclination_deg": 43.0013,
      "raan_deg": 187.5475,
      "arg_perigee_deg": 237.1125,
      "mean_anomaly_deg": 122.967,
      "mean_motion_rev_day": 15.2761025
    },
    {
      "epoch": "2026-04-01T12:21:47.109312Z",
      "apogee_km": 484.1203646541999,
      "perigee_km": 481.98790644927067,
      "latitude_deg": -1.949616792135338e-05,
      "longitude_deg": 166.68664434482568,
      "height_km": 482.6826198835235,
      "semi_major_axis_km": 6861.191135551735,
      "eccentricity": 0.0001554,
      "inclination_deg": 43.0033,
      "raan_deg": 182.01,
      "arg_perigee_deg": 278.018,
      "mean_anomaly_deg": 82.0495,
      "mean_motion_rev_day": 15.27578317
    },
    {
      "epoch": "2026-04-02T11:54:07.392960Z",
      "apogee_km": 483.97700506981437,
      "perigee_km": 481.8872606333298,
      "latitude_deg": -2.572004100150799e-05,
      "longitude_deg": 167.09761240016886,
      "height_km": 482.47956937541016,
      "semi_major_axis_km": 6861.069132851572,
      "eccentricity": 0.00015229,
      "inclination_deg": 43.0032,
      "raan_deg": 176.4722,
      "arg_perigee_deg": 282.7007,
      "mean_anomaly_deg": 77.3674,
      "mean_motion_rev_day": 15.27619062
    },
    {
      "epoch": "2026-04-03T14:34:47.108352Z",
      "apogee_km": 484.12671075008257,
      "perigee_km": 482.213778290311,
      "latitude_deg": 3.726994744224538e-05,
      "longitude_deg": 119.55848491926281,
      "height_km": 482.86523479642665,
      "semi_major_axis_km": 6861.307244520197,
      "eccentricity": 0.0001394,
      "inclination_deg": 43.0028,
      "raan_deg": 170.1941,
      "arg_perigee_deg": 274.9197,
      "mean_anomaly_deg": 85.1496,
      "mean_motion_rev_day": 15.27539542
    },
    {
      "epoch": "2026-04-04T06:16:22.183104Z",
      "apogee_km": 484.04700959661386,
      "perigee_km": 482.0689270872417,
      "latitude_deg": -1.5096183724389698e-05,
      "longitude_deg": -120.17410774200776,
      "height_km": 482.5981546063971,
      "semi_major_axis_km": 6861.194968341928,
      "eccentricity": 0.00014415,
      "inclination_deg": 43.003,
      "raan_deg": 166.5022,
      "arg_perigee_deg": 283.8576,
      "mean_anomaly_deg": 76.2115,
      "mean_motion_rev_day": 15.27577037
    },
    {
      "epoch": "2026-04-05T13:39:30.354912Z",
      "apogee_km": 484.09034431979853,
      "perigee_km": 482.02498750146606,
      "latitude_deg": -1.2173141284097147e-05,
      "longitude_deg": 120.36838352809517,
      "height_km": 482.82416662085103,
      "semi_major_axis_km": 6861.194665910632,
      "eccentricity": 0.00015051,
      "inclination_deg": 43.003,
      "raan_deg": 159.1177,
      "arg_perigee_deg": 270.5895,
      "mean_anomaly_deg": 89.4784,
      "mean_motion_rev_day": 15.27577138
    }
  ]
}